[{"OBJECT_NAME":"STARLINK-3100","OBJECT_ID":"2021-082Q","EPOCH":"2025-07-28T20:31:34.638528","MEAN_MOTION":14.98332706,"ECCENTRICITY":0.0002894,"INCLINATION":70.0005,"RA_OF_ASC_NODE":138.8119,"ARG_OF_PERICENTER":266.7566,"MEAN_ANOMALY":93.3262,"EPHEMERIS_TYPE":0,"CLASSIFICATION_TYPE":"U","NORAD_CAT_ID":49144,"ELEMENT_SET_NO":999,"REV_AT_EPOCH":21245,"BSTAR":7.9427e-5,"MEAN_MOTION_DOT":8.55e-6,"MEAN_MOTION_DDOT":0},{"OBJECT_NAME":"STARLINK-3119","OBJECT_ID":"2021-082R","EPOCH":"2025-07-28T19:18:49.699296","MEAN_MOTION":14.98319686,"ECCENTRICITY":0.0002881,"INCLINATION":69.9996,"RA_OF_ASC_NODE":98.9377,"ARG_OF_PERICENTER":252.8222,"MEAN_ANOMALY":107.2622,"EPHEMERIS_TYPE":0,"CLASSIFICATION_TYPE":"U","NORAD_CAT_ID":49145,"ELEMENT_SET_NO":999,"REV_AT_EPOCH":21342,"BSTAR":-0.00011613,"MEAN_MOTION_DOT":-1.478e-5,"MEAN_MOTION_DDOT":0},{"OBJECT_NAME":"STARLINK-3116","OBJECT_ID":"2021-082S","EPOCH":"2025-07-28T20:08:16.098144","MEAN_MOTION":14.97521777,"ECCENTRICITY":0.0002782,"INCLINATION":70.0001,"RA_OF_ASC_NODE":118.9465,"ARG_OF_PERICENTER":268.595,"MEAN_ANOMALY":91.489,"EPHEMERIS_TYPE":0,"CLASSIFICATION_TYPE":"U","NORAD_CAT_ID":49146,"ELEMENT_SET_NO":999,"REV_AT_EPOCH":21410,"BSTAR":5.874e-5,"MEAN_MOTION_DOT":5.94e-6,"MEAN_MOTION_DDOT":0},{"OBJECT_NAME":"STARLINK-3071","OBJECT_ID":"2021-082T","EPOCH":"2025-07-28T19:36:51.706368","MEAN_MOTION":14.98318316,"ECCENTRICITY":0.0003499,"INCLINATION":69.9998,"RA_OF_ASC_NODE":98.9234,"ARG_OF_PERICENTER":265.6068,"MEAN_ANOMALY":94.4691,"EPHEMERIS_TYPE":0,"CLASSIFICATION_TYPE":"U","NORAD_CAT_ID":49147,"ELEMENT_SET_NO":999,"REV_AT_EPOCH":21460,"BSTAR":-0.00014097,"MEAN_MOTION_DOT":-1.774e-5,"MEAN_MOTION_DDOT":0},{"OBJECT_NAME":"STARLINK-3048","OBJECT_ID":"2021-082U","EPOCH":"2025-07-28T03:54:22.940928","MEAN_MOTION":14.97520724,"ECCENTRICITY":0.0002447,"INCLINATION":70.0006,"RA_OF_ASC_NODE":120.629,"ARG_OF_PERICENTER":270.4061,"MEAN_ANOMALY":89.6817,"EPHEMERIS_TYPE":0,"CLASSIFICATION_TYPE":"U","NORAD_CAT_ID":49148,"ELEMENT_SET_NO":999,"REV_AT_EPOCH":21283,"BSTAR":7.2066e-6,"MEAN_MOTION_DOT":-8.0e-8,"MEAN_MOTION_DDOT":0},{"OBJECT_NAME":"STARLINK-3102","OBJECT_ID":"2021-082X","EPOCH":"2025-07-28T03:05:27.070656","MEAN_MOTION":14.98331208,"ECCENTRICITY":0.0002969,"INCLINATION":70.0001,"RA_OF_ASC_NODE":100.6476,"ARG_OF_PERICENTER":270.66,"MEAN_ANOMALY":89.4219,"EPHEMERIS_TYPE":0,"CLASSIFICATION_TYPE":"U","NORAD_CAT_ID":49151,"ELEMENT_SET_NO":999,"REV_AT_EPOCH":21452,"BSTAR":9.2248e-7,"MEAN_MOTION_DOT":-8.2e-7,"MEAN_MOTION_DDOT":0},{"OBJECT_NAME":"STARLINK-3072","OBJECT_ID":"2021-082Z","EPOCH":"2025-07-28T20:30:54.624096","MEAN_MOTION":14.98333598,"ECCENTRICITY":0.0002802,"INCLINATION":69.9998,"RA_OF_ASC_NODE":98.8233,"ARG_OF_PERICENTER":266.9284,"MEAN_ANOMALY":93.1554,"EPHEMERIS_TYPE":0,"CLASSIFICATION_TYPE":"U","NORAD_CAT_ID":49153,"ELEMENT_SET_NO":999,"REV_AT_EPOCH":21343,"BSTAR":6.5257e-5,"MEAN_MOTION_DOT":6.86e-6,"MEAN_MOTION_DDOT":0},{"OBJECT_NAME":"STARLINK-3068","OBJECT_ID":"2021-082AA","EPOCH":"2025-07-28T03:48:22.284000","MEAN_MOTION":14.97523566,"ECCENTRICITY":0.0002578,"INCLINATION":70.0005,"RA_OF_ASC_NODE":120.6429,"ARG_OF_PERICENTER":273.6143,"MEAN_ANOMALY":86.4721,"EPHEMERIS_TYPE":0,"CLASSIFICATION_TYPE":"U","NORAD_CAT_ID":49154,"ELEMENT_SET_NO":999,"REV_AT_EPOCH":21391,"BSTAR":8.138e-6,"MEAN_MOTION_DOT":3.0e-8,"MEAN_MOTION_DDOT":0},{"OBJECT_NAME":"STARLINK-3060","OBJECT_ID":"2021-082AB","EPOCH":"2025-07-28T20:24:53.872992","MEAN_MOTION":14.98325297,"ECCENTRICITY":0.0003118,"INCLINATION":69.9998,"RA_OF_ASC_NODE":98.8269,"ARG_OF_PERICENTER":270.7637,"MEAN_ANOMALY":89.3165,"EPHEMERIS_TYPE":0,"CLASSIFICATION_TYPE":"U","NORAD_CAT_ID":49155,"ELEMENT_SET_NO":999,"REV_AT_EPOCH":21451,"BSTAR":0.00013535,"MEAN_MOTION_DOT":1.522e-5,"MEAN_MOTION_DDOT":0},{"OBJECT_NAME":"STARLINK-3085","OBJECT_ID":"2021-082AC","EPOCH":"2025-07-28T19:54:51.651936","MEAN_MOTION":14.98317721,"ECCENTRICITY":0.0002277,"INCLINATION":70.0001,"RA_OF_ASC_NODE":98.8812,"ARG_OF_PERICENTER":268.7049,"MEAN_ANOMALY":91.3849,"EPHEMERIS_TYPE":0,"CLASSIFICATION_TYPE":"U","NORAD_CAT_ID":49156,"ELEMENT_SET_NO":999,"REV_AT_EPOCH":21451,"BSTAR":-0.00017324,"MEAN_MOTION_DOT":-2.159e-5,"MEAN_MOTION_DDOT":0},{"OBJECT_NAME":"STARLINK-3051","OBJECT_ID":"2021-082AD","EPOCH":"2025-07-28T11:24:28.910304","MEAN_MOTION":14.98329026,"ECCENTRICITY":0.000282,"INCLINATION":70.0009,"RA_OF_ASC_NODE":119.7735,"ARG_OF_PERICENTER":268.3089,"MEAN_ANOMALY":91.7747,"EPHEMERIS_TYPE":0,"CLASSIFICATION_TYPE":"U","NORAD_CAT_ID":49157,"ELEMENT_SET_NO":999,"REV_AT_EPOCH":21398,"BSTAR":-8.8672e-6,"MEAN_MOTION_DOT":-1.99e-6,"MEAN_MOTION_DDOT":0},{"OBJECT_NAME":"STARLINK-3083","OBJECT_ID":"2021-082AE","EPOCH":"2025-07-28T01:21:48.289824","MEAN_MOTION":15.38135312,"ECCENTRICITY":0.0006342,"INCLINATION":69.9804,"RA_OF_ASC_NODE":67.8688,"ARG_OF_PERICENTER":172.6144,"MEAN_ANOMALY":187.513,"EPHEMERIS_TYPE":0,"CLASSIFICATION_TYPE":"U","NORAD_CAT_ID":49158,"ELEMENT_SET_NO":999,"REV_AT_EPOCH":21523,"BSTAR":0.0014143,"MEAN_MOTION_DOT":0.00053522,"MEAN_MOTION_DDOT":0},{"OBJECT_NAME":"STARLINK-3056","OBJECT_ID":"2021-082AF","EPOCH":"2025-07-28T05:48:20.769120","MEAN_MOTION":14.98329795,"ECCENTRICITY":0.0003092,"INCLINATION":70.0006,"RA_OF_ASC_NODE":140.3689,"ARG_OF_PERICENTER":267.3756,"MEAN_ANOMALY":92.7049,"EPHEMERIS_TYPE":0,"CLASSIFICATION_TYPE":"U","NORAD_CAT_ID":49159,"ELEMENT_SET_NO":999,"REV_AT_EPOCH":21345,"BSTAR":2.4957e-5,"MEAN_MOTION_DOT":2.05e-6,"MEAN_MOTION_DDOT":0},{"OBJECT_NAME":"STARLINK-3095","OBJECT_ID":"2021-082AG","EPOCH":"2025-07-28T05:30:19.169856","MEAN_MOTION":14.98325935,"ECCENTRICITY":0.0002885,"INCLINATION":70.0004,"RA_OF_ASC_NODE":140.3828,"ARG_OF_PERICENTER":272.5427,"MEAN_ANOMALY":87.5401,"EPHEMERIS_TYPE":0,"CLASSIFICATION_TYPE":"U","NORAD_CAT_ID":49160,"ELEMENT_SET_NO":999,"REV_AT_EPOCH":21342,"BSTAR":0.00015681,"MEAN_MOTION_DOT":1.778e-5,"MEAN_MOTION_DDOT":0},{"OBJECT_NAME":"STARLINK-3080","OBJECT_ID":"2021-082AH","EPOCH":"2025-07-28T20:01:32.204928","MEAN_MOTION":14.98343897,"ECCENTRICITY":0.0002851,"INCLINATION":70.0003,"RA_OF_ASC_NODE":138.8541,"ARG_OF_PERICENTER":260.8635,"MEAN_ANOMALY":99.2201,"EPHEMERIS_TYPE":0,"CLASSIFICATION_TYPE":"U","NORAD_CAT_ID":49161,"ELEMENT_SET_NO":999,"REV_AT_EPOCH":21352,"BSTAR":9.9265e-5,"MEAN_MOTION_DOT":1.092e-5,"MEAN_MOTION_DDOT":0},{"OBJECT_NAME":"STARLINK-3088","OBJECT_ID":"2021-082AK","EPOCH":"2025-07-28T19:32:11.705568","MEAN_MOTION":14.97522257,"ECCENTRICITY":0.0002649,"INCLINATION":70.0006,"RA_OF_ASC_NODE":119.0039,"ARG_OF_PERICENTER":267.6207,"MEAN_ANOMALY":92.4648,"EPHEMERIS_TYPE":0,"CLASSIFICATION_TYPE":"U","NORAD_CAT_ID":49163,"ELEMENT_SET_NO":999,"REV_AT_EPOCH":21410,"BSTAR":5.7217e-6,"MEAN_MOTION_DOT":-2.5e-7,"MEAN_MOTION_DDOT":0},{"OBJECT_NAME":"STARLINK-3106","OBJECT_ID":"2021-082AL","EPOCH":"2025-07-28T20:37:15.473568","MEAN_MOTION":14.98349193,"ECCENTRICITY":0.0002588,"INCLINATION":70.0005,"RA_OF_ASC_NODE":118.8121,"ARG_OF_PERICENTER":265.2767,"MEAN_ANOMALY":94.8096,"EPHEMERIS_TYPE":0,"CLASSIFICATION_TYPE":"U","NORAD_CAT_ID":49164,"ELEMENT_SET_NO":999,"REV_AT_EPOCH":21411,"BSTAR":0.0002913,"MEAN_MOTION_DOT":3.386e-5,"MEAN_MOTION_DDOT":0}]
