STARLINK-3100           
1 49144U 21082Q   25209.85526202  .00000855  00000+0  79427-4 0  9993
2 49144  70.0005 138.8119 0002894 266.7566  93.3262 14.98332706212450
STARLINK-3119           
1 49145U 21082R   25209.80474189 -.00001478  00000+0 -11613-3 0  9991
2 49145  69.9996  98.9377 0002881 252.8222 107.2622 14.98319686213425
STARLINK-3116           
1 49146U 21082S   25209.83907521  .00000594  00000+0  58740-4 0  9995
2 49146  70.0001 118.9465 0002782 268.5950  91.4890 14.97521777214101
STARLINK-3071           
1 49147U 21082T   25209.81726512 -.00001774  00000+0 -14097-3 0  9992
2 49147  69.9998  98.9234 0003499 265.6068  94.4691 14.98318316214600
STARLINK-3048           
1 49148U 21082U   25209.16276552 -.00000008  00000+0  72066-5 0  9995
2 49148  70.0006 120.6290 0002447 270.4061  89.6817 14.97520724212834
STARLINK-3102           
1 49151U 21082X   25209.12878554 -.00000082  00000+0  92248-6 0  9992
2 49151  70.0001 100.6476 0002969 270.6600  89.4219 14.98331208214527
STARLINK-3072           
1 49153U 21082Z   25209.85479889  .00000686  00000+0  65257-4 0  9999
2 49153  69.9998  98.8233 0002802 266.9284  93.1554 14.98333598213439
STARLINK-3068           
1 49154U 21082AA  25209.15859125  .00000003  00000+0  81380-5 0  9997
2 49154  70.0005 120.6429 0002578 273.6143  86.4721 14.97523566213911
STARLINK-3060           
1 49155U 21082AB  25209.85062353  .00001522  00000+0  13535-3 0  9996
2 49155  69.9998  98.8269 0003118 270.7637  89.3165 14.98325297214518
STARLINK-3085           
1 49156U 21082AC  25209.82976449 -.00002159  00000+0 -17324-3 0  9993
2 49156  70.0001  98.8812 0002277 268.7049  91.3849 14.98317721214515
STARLINK-3051           
1 49157U 21082AD  25209.47533461 -.00000199  00000+0 -88672-5 0  9996
2 49157  70.0009 119.7735 0002820 268.3089  91.7747 14.98329026213987
STARLINK-3083           
1 49158U 21082AE  25209.05680891  .00053522  00000+0  14143-2 0  9996
2 49158  69.9804  67.8688 0006342 172.6144 187.5130 15.38135312215238
STARLINK-3056           
1 49159U 21082AF  25209.24190705  .00000205  00000+0  24957-4 0  9994
2 49159  70.0006 140.3689 0003092 267.3756  92.7049 14.98329795213457
STARLINK-3095           
1 49160U 21082AG  25209.22938854  .00001778  00000+0  15681-3 0  9998
2 49160  70.0004 140.3828 0002885 272.5427  87.5401 14.98325935213427
STARLINK-3080           
1 49161U 21082AH  25209.83440052  .00001092  00000+0  99265-4 0  9994
2 49161  70.0003 138.8541 0002851 260.8635  99.2201 14.98343897213521
STARLINK-3088           
1 49163U 21082AK  25209.81402437 -.00000025  00000+0  57217-5 0  9997
2 49163  70.0006 119.0039 0002649 267.6207  92.4648 14.97522257214107
STARLINK-3106           
1 49164U 21082AL  25209.85920687  .00003386  00000+0  29130-3 0  9997
2 49164  70.0005 118.8121 0002588 265.2767  94.8096 14.98349193214114
